{"_id":{"$oid":"59a47286cfa9a3a73e51e72c"},"theaterId":1000,"location":{"address":{"street1":"340 W Market","city":"Bloomington","state":"MN","zipcode":"55425"},"geo":{"type":"Point","coordinates":[-93.24565,44.85466]}}}
{"_id":{"$oid":"59a47286cfa9a3a73e51e733"},"theaterId":1012,"location":{"address":{"street1":"1207 W Century Ave","city":"Bismarck","state":"ND","zipcode":"58503"},"geo":{"type":"Point","coordinates":[-100.81213,46.829876]}}}
{"_id":{"$oid":"59a47286cfa9a3a73e51e761"},"theaterId":1058,"location":{"address":{"street1":"1148 Nw Norman Ave","city":"Gresham","state":"OR","zipcode":"97030"},"geo":{"type":"Point","coordinates":[-122.43715,45.505295]}}}
{"_id":{"$oid":"59a47286cfa9a3a73e51e745"},"theaterId":1037,"location":{"address":{"street1":"312 Newnan Crossing Byp E","city":"Newnan","state":"GA","zipcode":"30265"},"geo":{"type":"Point","coordinates":[-84.758972,33.393749]}}}
{"_id":{"$oid":"59a47286cfa9a3a73e51e742"},"theaterId":1024,"location":{"address":{"street1":"138 E Interstate 20","street2":"Ste 120","city":"Weatherford","state":"TX","zipcode":"76087"},"geo":{"type":"Point","coordinates":[-97.783157,32.727791]}}}
{"_id":{"$oid":"59a47286cfa9a3a73e51e759"},"theaterId":1049,"location":{"address":{"street1":"2703 Hwy 54","city":"Peachtree City","state":"GA","zipcode":"30269"},"geo":{"type":"Point","coordinates":[-84.597,33.397484]}}}
{"_id":{"$oid":"59a47286cfa9a3a73e51e738"},"theaterId":1015,"location":{"address":{"street1":"1721 Osgood Dr","city":"Altoona","state":"PA","zipcode":"16602"},"geo":{"type":"Point","coordinates":[-78.382912,40.490524]}}}
{"_id":{"$oid":"59a47286cfa9a3a73e51e73f"},"theaterId":1023,"location":{"address":{"street1":"823 N Creek Dr","city":"Sherman","state":"TX","zipcode":"75092"},"geo":{"type":"Point","coordinates":[-96.608055,33.685692]}}}
{"_id":{"$oid":"59a47286cfa9a3a73e51e75a"},"theaterId":1051,"location":{"address":{"street1":"7001 Fayetteville Rd","city":"Durham","state":"NC","zipcode":"27713"},"geo":{"type":"Point","coordinates":[-78.934631,35.907135]}}}
{"_id":{"$oid":"59a47286cfa9a3a73e51e75f"},"theaterId":1064,"location":{"address":{"street1":"401 S Mt Juliet Rd","city":"Mt Juliet","state":"TN","zipcode":"37122"},"geo":{"type":"Point","coordinates":[-86.509552,36.164974]}}}
{"_id":{"$oid":"59a47286cfa9a3a73e51e771"},"theaterId":1078,"location":{"address":{"street1":"16485 N Marketplace Blvd","city":"Nampa","state":"ID","zipcode":"83687"},"geo":{"type":"Point","coordinates":[-116.59116,43.611172]}}}
{"_id":{"$oid":"59a47286cfa9a3a73e51e784"},"theaterId":1104,"location":{"address":{"street1":"2055 N Tomahawk Island Drive","city":"Portland","state":"OR","zipcode":"97217"},"geo":{"type":"Point","coordinates":[-122.68615,45.61493]}}}
{"_id":{"$oid":"59a47286cfa9a3a73e51e78c"},"theaterId":1113,"location":{"address":{"street1":"2901 S Dogwood Rd","city":"El Centro","state":"CA","zipcode":"92243"},"geo":{"type":"Point","coordinates":[-115.52876,32.770676]}}}
{"_id":{"$oid":"59a47286cfa9a3a73e51e78f"},"theaterId":1110,"location":{"address":{"street1":"332-A Robert Smalls Pkwy","city":"Beaufort","state":"SC","zipcode":"29906"},"geo":{"type":"Point","coordinates":[-80.742401,32.42247]}}}
{"_id":{"$oid":"59a47286cfa9a3a73e51e798"},"theaterId":1118,"location":{"address":{"street1":"230 Calle Federico Costa Hato Rey","city":"San Juan","state":"PR","zipcode":"00918"},"geo":{"type":"Point","coordinates":[-66.07188,18.42684]}}}
{"_id":{"$oid":"59a47286cfa9a3a73e51e7b1"},"theaterId":1145,"location":{"address":{"street1":"9680 Mission Gorge Rd","city":"Santee","state":"CA","zipcode":"92071"},"geo":{"type":"Point","coordinates":[-116.98512,32.83952]}}}
{"_id":{"$oid":"59a47286cfa9a3a73e51e7b4"},"theaterId":1149,"location":{"address":{"street1":"105 Shoppers Way","city":"Christiansburg","state":"VA","zipcode":"24073"},"geo":{"type":"Point","coordinates":[-80.423721,37.168324]}}}
{"_id":{"$oid":"59a47286cfa9a3a73e51e7c9"},"theaterId":1171,"location":{"address":{"street1":"6707 S Vine St","street2":"Ste. D","city":"Centennial","state":"CO","zipcode":"80122"},"geo":{"type":"Point","coordinates":[-104.96501,39.59486]}}}
{"_id":{"$oid":"59a47286cfa9a3a73e51e7d0"},"theaterId":1183,"location":{"address":{"street1":"3967 State Route 31","city":"Liverpool","state":"NY","zipcode":"13090"},"geo":{"type":"Point","coordinates":[-76.2364,43.18766]}}}
{"_id":{"$oid":"59a47286cfa9a3a73e51e7dc"},"theaterId":1194,"location":{"address":{"street1":"4210 Centerplace Dr","city":"Greeley","state":"CO","zipcode":"80634"},"geo":{"type":"Point","coordinates":[-104.7091322,40.4233142]}}}
{"_id":{"$oid":"59a47286cfa9a3a73e51e7e5"},"theaterId":1220,"location":{"address":{"street1":"6000 E Lake Sammamish Parkway SE","city":"Issaquah","state":"WA","zipcode":"98027"},"geo":{"type":"Point","coordinates":[-122.04142,47.54935]}}}
{"_id":{"$oid":"59a47286cfa9a3a73e51e7f3"},"theaterId":131,"location":{"address":{"street1":"8960 Central Ave","city":"Montclair","state":"CA","zipcode":"91763"},"geo":{"type":"Point","coordinates":[-117.69006,34.091671]}}}
{"_id":{"$oid":"59a47286cfa9a3a73e51e7f8"},"theaterId":138,"location":{"address":{"street1":"1490 Fitzgerald Rd","city":"Pinole","state":"CA","zipcode":"94564"},"geo":{"type":"Point","coordinates":[-122.30667,37.990162]}}}
{"_id":{"$oid":"59a47286cfa9a3a73e51e7fb"},"theaterId":1381,"location":{"address":{"street1":"875 N Michigan Ave","city":"Chicago","state":"IL","zipcode":"60611"},"geo":{"type":"Point","coordinates":[-87.623052,41.898798]}}}
{"_id":{"$oid":"59a47286cfa9a3a73e51e812"},"theaterId":1407,"location":{"address":{"street1":"208 Fortune Blvd","city":"Milford","state":"MA","zipcode":"01757"},"geo":{"type":"Point","coordinates":[-71.503601,42.1623]}}}
{"_id":{"$oid":"59a47286cfa9a3a73e51e813"},"theaterId":140,"location":{"address":{"street1":"1127 Industrial Rd","city":"San Carlos","state":"CA","zipcode":"94070"},"geo":{"type":"Point","coordinates":[-122.24272,37.501781]}}}
{"_id":{"$oid":"59a47286cfa9a3a73e51e81b"},"theaterId":1416,"location":{"address":{"street1":"104 W 104th Ave","city":"Denver","state":"CO","zipcode":"80234"},"geo":{"type":"Point","coordinates":[-104.9884,39.883564]}}}
{"_id":{"$oid":"59a47286cfa9a3a73e51e83a"},"theaterId":1451,"location":{"address":{"street1":"5171 US Highway 70 W","city":"Morehead City","state":"NC","zipcode":"28557"},"geo":{"type":"Point","coordinates":[-76.808113,34.740192]}}}
{"_id":{"$oid":"59a47286cfa9a3a73e51e844"},"theaterId":145,"location":{"address":{"street1":"701 Hebron Rd","city":"Heath","state":"OH","zipcode":"43056"},"geo":{"type":"Point","coordinates":[-82.436119,40.033432]}}}
{"_id":{"$oid":"59a47286cfa9a3a73e51e854"},"theaterId":1476,"location":{"address":{"street1":"1455 Stafford Market Pl","city":"Stafford","state":"VA","zipcode":"22556"},"geo":{"type":"Point","coordinates":[-77.41209,38.47249]}}}
{"_id":{"$oid":"59a47286cfa9a3a73e51e859"},"theaterId":1486,"location":{"address":{"street1":"5025 Jimmy Lee Smith Pkwy","city":"Hiram","state":"GA","zipcode":"30141"},"geo":{"type":"Point","coordinates":[-84.74411,33.889713]}}}
{"_id":{"$oid":"59a47287cfa9a3a73e51e860"},"theaterId":1491,"location":{"address":{"street1":"18085 Nw Evergreen Pkwy","city":"Hillsboro","state":"OR","zipcode":"97006"},"geo":{"type":"Point","coordinates":[-122.8631,45.53969]}}}
{"_id":{"$oid":"59a47287cfa9a3a73e51e868"},"theaterId":1506,"location":{"address":{"street1":"2255 Springfield Ave","city":"Vauxhall","state":"NJ","zipcode":"07088"},"geo":{"type":"Point","coordinates":[-74.28622,40.71637]}}}
{"_id":{"$oid":"59a47287cfa9a3a73e51e86a"},"theaterId":1503,"location":{"address":{"street1":"11905 S Dixie Hwy","city":"Miami","state":"FL","zipcode":"33156"},"geo":{"type":"Point","coordinates":[-80.32548,25.66004]}}}
{"_id":{"$oid":"59a47287cfa9a3a73e51e883"},"theaterId":1538,"location":{"address":{"street1":"1202 New Brunswick Ave","city":"Phillipsburg","state":"NJ","zipcode":"08865"},"geo":{"type":"Point","coordinates":[-75.1395919,40.6731155]}}}
{"_id":{"$oid":"59a47287cfa9a3a73e51e885"},"theaterId":1539,"location":{"address":{"street1":"18700 Veterans Blvd","street2":"Unit 13","city":"Port Charlotte","state":"FL","zipcode":"33954"},"geo":{"type":"Point","coordinates":[-82.145239,27.013718]}}}
{"_id":{"$oid":"59a47287cfa9a3a73e51e891"},"theaterId":159,"location":{"address":{"street1":"5200 Campbell Blvd","city":"Nottingham","state":"MD","zipcode":"21236"},"geo":{"type":"Point","coordinates":[-76.454475,39.372471]}}}
{"_id":{"$oid":"59a47287cfa9a3a73e51e8a1"},"theaterId":1673,"location":{"address":{"street1":"2800 N. Main Street","street2":"#272","city":"Santa Ana","state":"CA","zipcode":"92705"},"geo":{"type":"Point","coordinates":[-117.867444,33.77649]}}}
{"_id":{"$oid":"59a47287cfa9a3a73e51e8b9"},"theaterId":1763,"location":{"address":{"street1":"552 N Us Hwy 27","city":"Lady Lake","state":"FL","zipcode":"32159"},"geo":{"type":"Point","coordinates":[-81.93613,28.9324]}}}
{"_id":{"$oid":"59a47287cfa9a3a73e51e8c1"},"theaterId":1793,"location":{"address":{"street1":"977 Branson Hills Pkwy","city":"Branson","state":"MO","zipcode":"65616-7470"},"geo":{"type":"Point","coordinates":[-93.22401,36.6656]}}}
{"_id":{"$oid":"59a47287cfa9a3a73e51e8cc"},"theaterId":183,"location":{"address":{"street1":"2909 Los Feliz Blvd","city":"Los Angeles","state":"CA","zipcode":"90039"},"geo":{"type":"Point","coordinates":[-118.26443,34.126701]}}}
{"_id":{"$oid":"59a47287cfa9a3a73e51e8f0"},"theaterId":1920,"location":{"address":{"street1":"3700 Atlanta Highway","street2":"#100","city":"Athens","state":"GA","zipcode":"30606"},"geo":{"type":"Point","coordinates":[-83.425456,33.947344]}}}
{"_id":{"$oid":"59a47287cfa9a3a73e51e8fb"},"theaterId":1932,"location":{"address":{"street1":"7101 Democracy Blvd","city":"Bethesda","state":"MD","zipcode":"20817"},"geo":{"type":"Point","coordinates":[-77.148603,39.023301]}}}
{"_id":{"$oid":"59a47287cfa9a3a73e51e90a"},"theaterId":1959,"location":{"address":{"street1":"1201 Lake Woodlands Drive","street2":"#2038","city":"Spring","state":"TX","zipcode":"77380"},"geo":{"type":"Point","coordinates":[-95.453792,30.167429]}}}
{"_id":{"$oid":"59a47287cfa9a3a73e51e916"},"theaterId":209,"location":{"address":{"street1":"9369 Sheridan Blvd","city":"Westminster","state":"CO","zipcode":"80030"},"geo":{"type":"Point","coordinates":[-105.05496,39.867207]}}}
{"_id":{"$oid":"59a47286cfa9a3a73e51e773"},"theaterId":1081,"location":{"address":{"street1":"3142 SE Military Dr","city":"San Antonio","state":"TX","zipcode":"78235"},"geo":{"type":"Point","coordinates":[-98.431946,29.350693]}}}
{"_id":{"$oid":"59a47286cfa9a3a73e51e776"},"theaterId":1083,"location":{"address":{"street1":"12909 Shops Pkwy","city":"Bee Cave","state":"TX","zipcode":"78738"},"geo":{"type":"Point","coordinates":[-97.947754,30.310236]}}}
{"_id":{"$oid":"59a47286cfa9a3a73e51e785"},"theaterId":1092,"location":{"address":{"street1":"3100 14th St Nw","city":"Washington","state":"DC","zipcode":"20010"},"geo":{"type":"Point","coordinates":[-77.034,38.929]}}}
{"_id":{"$oid":"59a47286cfa9a3a73e51e795"},"theaterId":1126,"location":{"address":{"street1":"14 Allstate Rd","city":"Dorchester","state":"MA","zipcode":"02125"},"geo":{"type":"Point","coordinates":[-71.060478,42.327961]}}}
{"_id":{"$oid":"59a47286cfa9a3a73e51e7a3"},"theaterId":1130,"location":{"address":{"street1":"6810 Charlotte Pike","city":"Nashville","state":"TN","zipcode":"37209"},"geo":{"type":"Point","coordinates":[-86.89312,36.134159]}}}
{"_id":{"$oid":"59a47286cfa9a3a73e51e7ad"},"theaterId":1140,"location":{"address":{"street1":"280 School St","city":"Mansfield","state":"MA","zipcode":"02048"},"geo":{"type":"Point","coordinates":[-71.22894,42.01262]}}}
{"_id":{"$oid":"59a47286cfa9a3a73e51e7c8"},"theaterId":1170,"location":{"address":{"street1":"2600 Us Hwy 34","city":"Oswego","state":"IL","zipcode":"60543"},"geo":{"type":"Point","coordinates":[-88.32581,41.69234]}}}
{"_id":{"$oid":"59a47286cfa9a3a73e51e7e0"},"theaterId":119,"location":{"address":{"street1":"901 S Coast Dr","street2":"Ste F","city":"Costa Mesa","state":"CA","zipcode":"92626"},"geo":{"type":"Point","coordinates":[-117.89194,33.6884]}}}
{"_id":{"$oid":"59a47286cfa9a3a73e51e7f0"},"theaterId":137,"location":{"address":{"street1":"1501 N Victory Pl","city":"Burbank","state":"CA","zipcode":"91504"},"geo":{"type":"Point","coordinates":[-118.32756,34.189072]}}}
{"_id":{"$oid":"59a47286cfa9a3a73e51e7f9"},"theaterId":12,"location":{"address":{"street1":"4130 W Division St","city":"Saint Cloud","state":"MN","zipcode":"56301"},"geo":{"type":"Point","coordinates":[-94.209656,45.55275]}}}
{"_id":{"$oid":"59a47286cfa9a3a73e51e803"},"theaterId":1403,"location":{"address":{"street1":"4413 Birkland Place","city":"Easton","state":"PA","zipcode":"18045"},"geo":{"type":"Point","coordinates":[-75.2858,40.65766]}}}
{"_id":{"$oid":"59a47286cfa9a3a73e51e809"},"theaterId":1400,"location":{"address":{"street1":"2833 W Ridge Rd","city":"Rochester","state":"NY","zipcode":"14626"},"geo":{"type":"Point","coordinates":[-77.691307,43.209003]}}}
{"_id":{"$oid":"59a47286cfa9a3a73e51e81a"},"theaterId":1417,"location":{"address":{"street1":"995 E I-30","city":"Rockwall","state":"TX","zipcode":"75087"},"geo":{"type":"Point","coordinates":[-96.452347,32.903969]}}}
{"_id":{"$oid":"59a47286cfa9a3a73e51e824"},"theaterId":1426,"location":{"address":{"street1":"6670 Edwardsville Crossing Drive","city":"Edwardsville","state":"IL","zipcode":"62025"},"geo":{"type":"Point","coordinates":[-89.95327,38.784763]}}}
{"_id":{"$oid":"59a47286cfa9a3a73e51e82f"},"theaterId":143,"location":{"address":{"street1":"178 Thf Blvd","city":"Chesterfield","state":"MO","zipcode":"63005"},"geo":{"type":"Point","coordinates":[-90.600029,38.667542]}}}
{"_id":{"$oid":"59a47286cfa9a3a73e51e839"},"theaterId":1449,"location":{"address":{"street1":"13093 Gateway Center Dr","city":"Gainesville","state":"VA","zipcode":"20155"},"geo":{"type":"Point","coordinates":[-77.604935,38.793159]}}}
{"_id":{"$oid":"59a47287cfa9a3a73e51e861"},"theaterId":1494,"location":{"address":{"street1":"9581 Sage Meadow Trail","city":"Fort Worth","state":"TX","zipcode":"76177"},"geo":{"type":"Point","coordinates":[-97.315818,32.912228]}}}
{"_id":{"$oid":"59a47287cfa9a3a73e51e893"},"theaterId":161,"location":{"address":{"street1":"100 Meijer Dr.","city":"Florence","state":"KY","zipcode":"41042"},"geo":{"type":"Point","coordinates":[-84.636383,39.014843]}}}
{"_id":{"$oid":"59a47287cfa9a3a73e51e8a4"},"theaterId":168,"location":{"address":{"street1":"7830 Plaza Blvd","city":"Mentor","state":"OH","zipcode":"44060"},"geo":{"type":"Point","coordinates":[-81.365799,41.658512]}}}
{"_id":{"$oid":"59a47287cfa9a3a73e51e8ba"},"theaterId":1777,"location":{"address":{"street1":"3262 W Belmont Ave","city":"Chicago","state":"IL","zipcode":"60618"},"geo":{"type":"Point","coordinates":[-87.71181,41.94017]}}}
{"_id":{"$oid":"59a47287cfa9a3a73e51e8be"},"theaterId":1778,"location":{"address":{"street1":"1830 Towne Centre Drive","city":"North Aurora","state":"IL","zipcode":"60542"},"geo":{"type":"Point","coordinates":[-88.36679,41.79631]}}}
{"_id":{"$oid":"59a47287cfa9a3a73e51e8d1"},"theaterId":182,"location":{"address":{"street1":"3209 E Central Texas Expy","city":"Killeen","state":"TX","zipcode":"76543"},"geo":{"type":"Point","coordinates":[-97.708664,31.086962]}}}
{"_id":{"$oid":"59a47287cfa9a3a73e51e8d9"},"theaterId":188,"location":{"address":{"street1":"59 N Broadway","city":"Chula Vista","state":"CA","zipcode":"91910"},"geo":{"type":"Point","coordinates":[-117.09515,32.651306]}}}
{"_id":{"$oid":"59a47287cfa9a3a73e51e8ea"},"theaterId":1915,"location":{"address":{"street1":"2150 Northwoods Blvd","city":"Charleston","state":"SC","zipcode":"29406"},"geo":{"type":"Point","coordinates":[-80.041588,32.94358]}}}
{"_id":{"$oid":"59a47287cfa9a3a73e51e8f8"},"theaterId":1918,"location":{"address":{"street1":"2300 N. Salisbury Blvd","street2":"#K107","city":"Salisbury","state":"MD","zipcode":"21801"},"geo":{"type":"Point","coordinates":[-75.569822,38.401924]}}}
{"_id":{"$oid":"59a47287cfa9a3a73e51e906"},"theaterId":1954,"location":{"address":{"street1":"6121 W Park Blvd","street2":"#B109","city":"Plano","state":"TX","zipcode":"75093"},"geo":{"type":"Point","coordinates":[-96.833368,33.031383]}}}
{"_id":{"$oid":"59a47286cfa9a3a73e51e747"},"theaterId":1038,"location":{"address":{"street1":"6060 Long Prairie Rd","city":"Flower Mound","state":"TX","zipcode":"75028"},"geo":{"type":"Point","coordinates":[-97.080109,33.06926]}}}
{"_id":{"$oid":"59a47286cfa9a3a73e51e74e"},"theaterId":1036,"location":{"address":{"street1":"950 County Road 64","city":"Elmira","state":"NY","zipcode":"14903"},"geo":{"type":"Point","coordinates":[-76.874817,42.153339]}}}
{"_id":{"$oid":"59a47286cfa9a3a73e51e764"},"theaterId":1063,"location":{"address":{"street1":"1018 24th Ave SW","city":"Minot","state":"ND","zipcode":"58701"},"geo":{"type":"Point","coordinates":[-101.30759,48.203568]}}}
{"_id":{"$oid":"59a47286cfa9a3a73e51e75e"},"theaterId":1046,"location":{"address":{"street1":"6600 Lone Tree Way","city":"Brentwood","state":"CA","zipcode":"94513"},"geo":{"type":"Point","coordinates":[-121.72911,37.963871]}}}
{"_id":{"$oid":"59a47286cfa9a3a73e51e77a"},"theaterId":1097,"location":{"address":{"street1":"1100 Oxford Exchange Blvd","city":"Oxford","state":"AL","zipcode":"36203"},"geo":{"type":"Point","coordinates":[-85.835876,33.604454]}}}
{"_id":{"$oid":"59a47286cfa9a3a73e51e779"},"theaterId":1096,"location":{"address":{"street1":"1632 Stringtown Rd","city":"Grove City","state":"OH","zipcode":"43123"},"geo":{"type":"Point","coordinates":[-83.043732,39.879684]}}}
{"_id":{"$oid":"59a47286cfa9a3a73e51e77e"},"theaterId":1091,"location":{"address":{"street1":"60 Smithfield Blvd","city":"Plattsburgh","state":"NY","zipcode":"12901"},"geo":{"type":"Point","coordinates":[-73.503448,44.700077]}}}
{"_id":{"$oid":"59a47286cfa9a3a73e51e77c"},"theaterId":1089,"location":{"address":{"street1":"21085 Salmon Run Mall Loop W","city":"Watertown","state":"NY","zipcode":"13601"},"geo":{"type":"Point","coordinates":[-75.959389,43.97506]}}}
{"_id":{"$oid":"59a47286cfa9a3a73e51e782"},"theaterId":1101,"location":{"address":{"street1":"329 Tuttle Creek Blvd","city":"Manhattan","state":"KS","zipcode":"66502"},"geo":{"type":"Point","coordinates":[-96.559006,39.181942]}}}
{"_id":{"$oid":"59a47286cfa9a3a73e51e790"},"theaterId":1119,"location":{"address":{"street1":"2701 Cherry Ave","city":"Signal Hill","state":"CA","zipcode":"90755"},"geo":{"type":"Point","coordinates":[-118.16783,33.807213]}}}
{"_id":{"$oid":"59a47286cfa9a3a73e51e7b9"},"theaterId":1154,"location":{"address":{"street1":"4180 Us Hwy 1","street2":"Ste 400C","city":"Monmouth Jct","state":"NJ","zipcode":"08852"},"geo":{"type":"Point","coordinates":[-74.57343,40.38204]}}}
{"_id":{"$oid":"59a47286cfa9a3a73e51e7a1"},"theaterId":1129,"location":{"address":{"street1":"10901 Georgia Ave","city":"Wheaton","state":"MD","zipcode":"20902"},"geo":{"type":"Point","coordinates":[-77.052582,39.035542]}}}
{"_id":{"$oid":"59a47286cfa9a3a73e51e7a2"},"theaterId":112,"location":{"address":{"street1":"390 N Moorpark Rd","city":"Thousand Oaks","state":"CA","zipcode":"91360"},"geo":{"type":"Point","coordinates":[-118.87419,34.182625]}}}
{"_id":{"$oid":"59a47286cfa9a3a73e51e7a5"},"theaterId":1141,"location":{"address":{"street1":"4210 14th St W","city":"Bradenton","state":"FL","zipcode":"34205"},"geo":{"type":"Point","coordinates":[-82.574356,27.463388]}}}
{"_id":{"$oid":"59a47286cfa9a3a73e51e7d4"},"theaterId":1187,"location":{"address":{"street1":"1046 N El Camino Real","city":"Encinitas","state":"CA","zipcode":"92024"},"geo":{"type":"Point","coordinates":[-117.26584,33.06663]}}}
{"_id":{"$oid":"59a47286cfa9a3a73e51e7a6"},"theaterId":1132,"location":{"address":{"street1":"6390 Bayfield Pkwy","city":"Concord","state":"NC","zipcode":"28027"},"geo":{"type":"Point","coordinates":[-80.674644,35.419713]}}}
{"_id":{"$oid":"59a47286cfa9a3a73e51e7d6"},"theaterId":1189,"location":{"address":{"street1":"2288 E Williams Field Rd","city":"Gilbert","state":"AZ","zipcode":"85295"},"geo":{"type":"Point","coordinates":[-111.73894,33.30795]}}}
{"_id":{"$oid":"59a47286cfa9a3a73e51e7f7"},"theaterId":1388,"location":{"address":{"street1":"2020 Hammond Square Dr","city":"Hammond","state":"LA","zipcode":"70403"},"geo":{"type":"Point","coordinates":[-90.4611995,30.5043583]}}}
{"_id":{"$oid":"59a47286cfa9a3a73e51e800"},"theaterId":1387,"location":{"address":{"street1":"187 Creekside Way","city":"New Braunfels","state":"TX","zipcode":"78130"},"geo":{"type":"Point","coordinates":[-98.07806,29.72633]}}}
{"_id":{"$oid":"59a47286cfa9a3a73e51e7a7"},"theaterId":1134,"location":{"address":{"street1":"3511 N Salida Ct","city":"Aurora","state":"CO","zipcode":"80011"},"geo":{"type":"Point","coordinates":[-104.77771,39.764637]}}}
{"_id":{"$oid":"59a47286cfa9a3a73e51e828"},"theaterId":1428,"location":{"address":{"street1":"321 Azalea Square Blvd","city":"Summerville","state":"SC","zipcode":"29483"},"geo":{"type":"Point","coordinates":[-80.160919,33.037933]}}}
{"_id":{"$oid":"59a47286cfa9a3a73e51e7ba"},"theaterId":1155,"location":{"address":{"street1":"10221 Perimeter Pkwy","city":"Charlotte","state":"NC","zipcode":"28216"},"geo":{"type":"Point","coordinates":[-80.85369,35.34679]}}}
{"_id":{"$oid":"59a47286cfa9a3a73e51e85a"},"theaterId":1481,"location":{"address":{"street1":"2440 W Happy Valley Rd","city":"Phoenix","state":"AZ","zipcode":"85085"},"geo":{"type":"Point","coordinates":[-112.10809,33.716125]}}}
{"_id":{"$oid":"59a47286cfa9a3a73e51e7be"},"theaterId":115,"location":{"address":{"street1":"25080 Madison Ave","city":"Murrieta","state":"CA","zipcode":"92562"},"geo":{"type":"Point","coordinates":[-117.198,33.557571]}}}
{"_id":{"$oid":"59a47287cfa9a3a73e51e869"},"theaterId":1502,"location":{"address":{"street1":"10760 Nw 17th St","city":"Miami","state":"FL","zipcode":"33172"},"geo":{"type":"Point","coordinates":[-80.36966,25.78848]}}}
{"_id":{"$oid":"59a47286cfa9a3a73e51e7c5"},"theaterId":1169,"location":{"address":{"street1":"1561 S Randall Rd","city":"Algonquin","state":"IL","zipcode":"60102"},"geo":{"type":"Point","coordinates":[-88.333092,42.156265]}}}
{"_id":{"$oid":"59a47287cfa9a3a73e51e86f"},"theaterId":1510,"location":{"address":{"street1":"6000 Sepulveda Blvd.","city":"Culver City","state":"CA","zipcode":"90230"},"geo":{"type":"Point","coordinates":[-118.394938,33.985787]}}}
{"_id":{"$oid":"59a47286cfa9a3a73e51e7d3"},"theaterId":1186,"location":{"address":{"street1":"1810 Cumming Hwy","street2":"Suite 600","city":"Canton","state":"GA","zipcode":"30114"},"geo":{"type":"Point","coordinates":[-84.4603709,34.2379951]}}}
{"_id":{"$oid":"59a47287cfa9a3a73e51e87d"},"theaterId":1531,"location":{"address":{"street1":"52 E 14th St","street2":"#64","city":"New York","state":"NY","zipcode":"10003"},"geo":{"type":"Point","coordinates":[-73.9905737,40.7349109]}}}
